[{"OBJECT_NAME":"FLOCK 4G-21","OBJECT_ID":"2025-009AU","EPOCH":"2026-03-09T04:40:37.351200","MEAN_MOTION":15.28381075,"ECCENTRICITY":4.655e-5,"INCLINATION":97.4032,"RA_OF_ASC_NODE":151.1274,"ARG_OF_PERICENTER":329.5782,"MEAN_ANOMALY":30.5431,"EPHEMERIS_TYPE":0,"CLASSIFICATION_TYPE":"U","NORAD_CAT_ID":62651,"ELEMENT_SET_NO":999,"REV_AT_EPOCH":6367,"BSTAR":0.00049618643,"MEAN_MOTION_DOT":0.00013648,"MEAN_MOTION_DDOT":0},{"OBJECT_NAME":"STARLINK-35985","OBJECT_ID":"2025-278AA","EPOCH":"2026-03-09T04:39:25.208064","MEAN_MOTION":15.27580568,"ECCENTRICITY":0.00010056,"INCLINATION":43.0024,"RA_OF_ASC_NODE":117.1271,"ARG_OF_PERICENTER":232.4448,"MEAN_ANOMALY":127.6312,"EPHEMERIS_TYPE":0,"CLASSIFICATION_TYPE":"U","NORAD_CAT_ID":66815,"ELEMENT_SET_NO":999,"REV_AT_EPOCH":1634,"BSTAR":0.0011061796,"MEAN_MOTION_DOT":0.00030303,"MEAN_MOTION_DDOT":0}]
